HAWK-6B                 
1 55324U 23011A   26169.75691109  .00003855  00000+0  16889-3 0  9993
2 55324  40.4999 342.9161 0002093  11.2202 348.8654 15.22945454188088
HAWK-6C                 
1 55326U 23011C   26169.75625097  .00003655  00000+0  16058-3 0  9994
2 55326  40.4990 339.7585 0002981   0.0210   0.0599 15.22942081188095
HAWK-6A                 
1 55327U 23011D   26169.75630367  .00003921  00000+0  17164-3 0  9996
2 55327  40.4999 341.3823 0002682 355.8331   4.2456 15.22943830188093
HAWK-7A                 
1 56191U 23054P   26169.68271778  .00004403  00000+0  16697-3 0  9998
2 56191  97.2696  56.9818 0004217  53.9708 306.1922 15.27373287177256
HAWK-7B                 
1 56193U 23054R   26169.68263588  .00004563  00000+0  17293-3 0  9990
2 56193  97.2721  55.2462 0003656  66.2532 293.9090 15.27371629177259
HAWK-7C                 
1 56200U 23054Y   26169.68252321  .00004424  00000+0  16774-3 0  9991
2 56200  97.2699  56.0144 0003588  57.5778 302.5808 15.27372883177254
