OBJECT_NAME,OBJECT_ID,EPOCH,MEAN_MOTION,ECCENTRICITY,INCLINATION,RA_OF_ASC_NODE,ARG_OF_PERICENTER,MEAN_ANOMALY,EPHEMERIS_TYPE,CLASSIFICATION_TYPE,NORAD_CAT_ID,ELEMENT_SET_NO,REV_AT_EPOCH,BSTAR,MEAN_MOTION_DOT,MEAN_MOTION_DDOT
HAWK-6B,2023-011A,2026-06-18T18:09:57.118176,15.22945454,.0002093,40.4999,342.9161,11.2202,348.8654,0,U,55324,999,18808,.16889E-3,.3855E-4,0
HAWK-6C,2023-011C,2026-06-18T18:09:00.083808,15.22942081,.0002981,40.4990,339.7585,0.0210,0.0599,0,U,55326,999,18809,.16058E-3,.3655E-4,0
HAWK-6A,2023-011D,2026-06-18T18:09:04.637088,15.22943830,.0002682,40.4999,341.3823,355.8331,4.2456,0,U,55327,999,18809,.17164E-3,.3921E-4,0
HAWK-7A,2023-054P,2026-06-18T16:23:06.816192,15.27373287,.0004217,97.2696,56.9818,53.9708,306.1922,0,U,56191,999,17725,.16697E-3,.4403E-4,0
HAWK-7B,2023-054R,2026-06-18T16:22:59.740032,15.27371629,.0003656,97.2721,55.2462,66.2532,293.9090,0,U,56193,999,17725,.17293E-3,.4563E-4,0
HAWK-7C,2023-054Y,2026-06-18T16:22:50.005344,15.27372883,.0003588,97.2699,56.0144,57.5778,302.5808,0,U,56200,999,17725,.16774E-3,.4424E-4,0
